NORAD_CAT_ID,OBJECT_NAME,OBJECT_TYPE,EPOCH,MEAN_MOTION,ECCENTRICITY,INCLINATION,RA_OF_ASC_NODE,ARG_OF_PERICENTER,MEAN_ANOMALY,BSTAR,MEAN_MOTION_DOT,MEAN_MOTION_DDOT,TLE_LINE0,TLE_LINE1,TLE_LINE2,SEMIMAJOR_AXIS,PERIOD,APOGEE,PERIGEE,DECAYED
55774.0,STARLINK-5812,PAYLOAD,2023-06-11 22:00:00,15.54238129,0.0003375,69.9994,233.858,272.7429,233.7007,-0.015011,-0.0089439,0.0,0 STARLINK-5812,1 55774U 23028AK  23162.91667824 -.00894390  00000-0 -15011-1 0  9994,2 55774  69.9994 233.8580 0003375 272.7429 233.7007 15.54238129  1302,6782.505,92.65,406.659,402.081,0.0
55774.0,STARLINK-5812,PAYLOAD,2023-06-12 06:00:00,15.53636874,0.0003346,69.9999,232.9433,267.4729,303.0973,-0.016646,-0.00976924,0.0,0 STARLINK-5812,1 55774U 23028AK  23163.25001157 -.00976924  00000-0 -16646-1 0  9992,2 55774  69.9999 232.9433 0003346 267.4729 303.0973 15.53636874 16437,6784.255,92.686,408.39,403.85,0.0
55774.0,STARLINK-5812,PAYLOAD,2023-06-12 14:00:01,15.52925904,0.0003376,69.9998,232.029,273.3351,0.6819,-0.015157,-0.00863733,0.0,0 STARLINK-5812,1 55774U 23028AK  23163.58335648 -.00863733  00000-0 -15157-1 0  9992,2 55774  69.9998 232.0290 0003376 273.3351   0.6819 15.52925904  1301,6786.325,92.728,410.482,405.899,0.0
55774.0,STARLINK-5812,PAYLOAD,2023-06-12 22:00:00,15.52271435,0.000341,69.9995,231.1155,270.3325,66.2093,-0.015808,-0.00878361,0.0,0 STARLINK-5812,1 55774U 23028AK  23163.91667824 -.00878361  00000-0 -15808-1 0  9999,2 55774  69.9995 231.1155 0003410 270.3325  66.2093 15.52271435 16531,6788.233,92.767,412.413,407.783,0.0
55774.0,STARLINK-5812,PAYLOAD,2023-06-13 00:00:00,15.52078239,0.0003442,69.9996,230.8875,269.8568,172.2136,-0.014598,-0.00811344,0.0,0 STARLINK-5812,1 55774U 23028AK  23164.00001157 -.00811344  00000-0 -14598-1 0  9994,2 55774  69.9996 230.8875 0003442 269.8568 172.2136 15.52078239  1306,6788.796,92.779,412.998,408.324,0.0
55774.0,STARLINK-5812,PAYLOAD,2023-06-13 06:00:02,15.5150964,0.0003501,69.9999,230.2033,267.0599,131.3514,-0.0074038,-0.00417204,0.0,0 STARLINK-5812,1 55774U 23028AK  23164.25002315 -.00417204  00000-0 -74038-2 0  9991,2 55774  69.9999 230.2033 0003501 267.0599 131.3514 15.51509640 16585,6790.455,92.813,414.697,409.942,0.0
55774.0,STARLINK-5812,PAYLOAD,2023-06-13 14:00:01,15.51199233,0.0003554,70.0,229.2916,274.3356,185.0812,0.00080331,0.00047262,0.0,0 STARLINK-5812,1 55774U 23028AK  23164.58334491  .00047262  00000-0  80331-3 0  9995,2 55774  70.0000 229.2916 0003554 274.3356 185.0812 15.51199233 16646,6791.361,92.831,415.639,410.812,0.0
55774.0,STARLINK-5812,PAYLOAD,2023-06-13 22:00:00,15.5120955,0.0003549,69.9998,228.3803,270.0845,250.2429,0.0001101,6.304e-05,0.0,0 STARLINK-5812,1 55774U 23028AK  23164.91667824  .00006304  00000-0  11010-3 0  9991,2 55774  69.9998 228.3803 0003549 270.0845 250.2429 15.51209550  1304,6791.33,92.831,415.606,410.785,0.0
55774.0,STARLINK-5812,PAYLOAD,2023-06-14 06:00:00,15.51254216,0.0003571,69.9999,227.4692,267.9253,313.2896,-0.00071356,-0.00041904,0.0,0 STARLINK-5812,1 55774U 23028AK  23165.25001157 -.00041904  00000-0 -71356-3 0  9996,2 55774  69.9999 227.4692 0003571 267.9253 313.2896 15.51254216 16745,6791.2,92.828,415.49,410.64,0.0
55774.0,STARLINK-5812,PAYLOAD,2023-06-14 14:00:01,15.5120559,0.0003549,69.9997,226.5578,274.666,7.4847,0.00078443,0.00046152,0.0,0 STARLINK-5812,1 55774U 23028AK  23165.58334491  .00046152  00000-0  78443-3 0  9994,2 55774  69.9997 226.5578 0003549 274.6660   7.4847 15.51205590  1303,6791.342,92.831,415.617,410.797,0.0
55774.0,STARLINK-5812,PAYLOAD,2023-06-14 22:00:00,15.51217852,0.0003509,69.9997,225.6465,269.5701,73.4969,-0.00043668,-0.00025727,0.0,0 STARLINK-5812,1 55774U 23028AK  23165.91667824 -.00025727  00000-0 -43668-3 0  9998,2 55774  69.9997 225.6465 0003509 269.5701  73.4969 15.51217852 16840,6791.306,92.83,415.554,410.788,0.0
55774.0,STARLINK-5812,PAYLOAD,2023-06-15 06:00:00,15.51459208,0.0003642,70.0001,224.7351,270.2042,133.716,-0.014045,-0.00767114,0.0,0 STARLINK-5812,1 55774U 23028AK  23166.25001157 -.00767114  00000-0 -14045-1 0  9995,2 55774  70.0001 224.7351 0003642 270.2042 133.7160 15.51459208 16899,6790.602,92.816,414.94,409.994,0.0
55774.0,STARLINK-5812,PAYLOAD,2023-06-15 14:00:01,15.50889262,0.0003564,69.9998,223.824,275.1768,189.6172,-0.016592,-0.00877398,0.0,0 STARLINK-5812,1 55774U 23028AK  23166.58334491 -.00877398  00000-0 -16592-1 0  9996,2 55774  69.9998 223.8240 0003564 275.1768 189.6172 15.50889262 16956,6792.265,92.85,416.551,411.71,0.0
55774.0,STARLINK-5812,PAYLOAD,2023-06-15 20:00:01,15.50408636,0.0003501,69.9995,223.1411,271.5942,148.3726,-0.017476,-0.00905619,0.0,0 STARLINK-5812,1 55774U 23028AK  23166.83334491 -.00905619  00000-0 -17476-1 0  9994,2 55774  69.9995 223.1411 0003501 271.5942 148.3726 15.50408636  1303,6793.669,92.879,417.913,413.156,0.0
55774.0,STARLINK-5812,PAYLOAD,2023-06-16 06:00:00,15.49621729,0.0003292,69.9998,222.004,266.0191,318.2483,-0.018825,-0.00958034,0.0,0 STARLINK-5812,1 55774U 23028AK  23167.25001157 -.00958034  00000-0 -18825-1 0  9999,2 55774  69.9998 222.0040 0003292 266.0191 318.2483 15.49621729 17059,6795.969,92.926,420.071,415.597,0.0
55774.0,STARLINK-5812,PAYLOAD,2023-06-16 14:00:01,15.48934509,0.0003331,69.9996,221.0952,272.1192,10.7243,-0.017874,-0.0088138,0.0,0 STARLINK-5812,1 55774U 23028AK  23167.58334491 -.00881380  00000-0 -17874-1 0  9997,2 55774  69.9996 221.0952 0003331 272.1192  10.7243 15.48934509  1302,6797.979,92.967,422.108,417.579,0.0
55774.0,STARLINK-5812,PAYLOAD,2023-06-16 22:00:00,15.48259159,0.000337,69.9993,220.1876,267.9832,72.6536,-0.017614,-0.00851015,0.0,0 STARLINK-5812,1 55774U 23028AK  23167.91667824 -.00851015  00000-0 -17614-1 0  9997,2 55774  69.9993 220.1876 0003370 267.9832  72.6536 15.48259159 17153,6799.955,93.008,424.112,419.529,0.0
55774.0,STARLINK-5812,PAYLOAD,2023-06-17 07:24:15,15.49029021,0.0003221,69.9983,219.1274,249.0476,111.0365,-0.0041558,-0.00219889,0.0,0 STARLINK-5812,1 55774U 23028AK  23168.30851211 -.00219889  00000-0 -41558-2 0  9998,2 55774  69.9983 219.1274 0003221 249.0476 111.0365 15.49029021 17222,6797.702,92.961,421.757,417.378,0.0
55774.0,STARLINK-5812,PAYLOAD,2023-06-17 14:00:01,15.46978039,0.0003387,69.9989,218.3748,275.8911,177.9603,-0.019112,-0.00892003,0.0,0 STARLINK-5812,1 55774U 23028AK  23168.58334491 -.00892003  00000-0 -19112-1 0  9999,2 55774  69.9989 218.3748 0003387 275.8911 177.9603 15.46978039 17268,6803.709,93.085,427.879,423.27,0.0
55774.0,STARLINK-5812,PAYLOAD,2023-06-17 22:00:01,15.46297206,0.0003347,69.9989,217.4698,270.0452,239.3191,-0.018603,-0.00840426,0.0,0 STARLINK-5812,1 55774U 23028AK  23168.91668981 -.00840426  00000-0 -18603-1 0  9996,2 55774  69.9989 217.4698 0003347 270.0452 239.3191 15.46297206  1308,6805.706,93.126,429.849,425.293,0.0
55774.0,STARLINK-5812,PAYLOAD,2023-06-18 06:00:00,15.45704329,0.0003409,69.9992,216.5658,268.1674,295.7723,-0.021473,-0.00953584,0.0,0 STARLINK-5812,1 55774U 23028AK  23169.25001157 -.00953584  00000-0 -21473-1 0  9999,2 55774  69.9992 216.5658 0003409 268.1674 295.7723 15.45704329 17369,6807.446,93.161,431.632,426.991,0.0
55774.0,STARLINK-5812,PAYLOAD,2023-06-18 14:00:01,15.45018193,0.0003542,69.9986,215.6623,272.4287,345.4556,-0.020409,-0.00890481,0.0,0 STARLINK-5812,1 55774U 23028AK  23169.58335648 -.00890481  00000-0 -20409-1 0  9994,2 55774  69.9986 215.6623 0003542 272.4287 345.4556 15.45018193  1301,6809.462,93.203,433.739,428.915,0.0
55774.0,STARLINK-5812,PAYLOAD,2023-06-18 22:00:00,15.44343439,0.0003583,69.9985,214.7598,267.8196,43.0992,-0.020017,-0.00845253,0.0,0 STARLINK-5812,1 55774U 23028AK  23169.91667824 -.00845253  00000-0 -20017-1 0  9997,2 55774  69.9985 214.7598 0003583 267.8196  43.0992 15.44343439 17465,6811.445,93.244,435.75,430.869,0.0
55774.0,STARLINK-5812,PAYLOAD,2023-06-19 12:00:00,15.43213112,0.0003586,69.9987,213.1827,272.0583,39.8844,-0.021231,-0.00872634,0.0,0 STARLINK-5812,1 55774U 23028AK  23170.50001157 -.00872634  00000-0 -21231-1 0  9997,2 55774  69.9987 213.1827 0003586 272.0583  39.8844 15.43213112 17558,6814.771,93.312,439.079,434.192,0.0
55774.0,STARLINK-5812,PAYLOAD,2023-06-19 12:13:14,15.45035712,0.0005615,69.9974,213.1597,206.286,153.8039,-0.0056703,-0.00260114,0.0,0 STARLINK-5812,1 55774U 23028AK  23170.50919714 -.00260114  00000-0 -56703-2 0  9991,2 55774  69.9974 213.1597 0005615 206.2860 153.8039 15.45035712 17564,6809.41,93.202,435.099,427.452,0.0
55774.0,STARLINK-5812,PAYLOAD,2023-06-19 22:00:00,15.42383235,0.0003453,69.9983,212.0578,269.5908,195.909,-0.021214,-0.00849668,0.0,0 STARLINK-5812,1 55774U 23028AK  23170.91667824 -.00849668  00000-0 -21214-1 0  9993,2 55774  69.9983 212.0578 0003453 269.5908 195.9090 15.42383235 17628,6817.215,93.362,441.434,436.726,0.0
55774.0,STARLINK-5812,PAYLOAD,2023-06-20 04:00:00,15.41966766,0.0003542,69.9984,211.3836,269.8446,143.1761,-0.024766,-0.00967456,0.0,0 STARLINK-5812,1 55774U 23028AK  23171.16667824 -.00967456  00000-0 -24766-1 0  9992,2 55774  69.9984 211.3836 0003542 269.8446 143.1761 15.41966766 17655,6818.442,93.387,442.722,437.892,0.0
55774.0,STARLINK-5812,PAYLOAD,2023-06-20 14:00:01,15.41117754,0.0003358,69.9981,210.2609,274.7181,289.9089,-0.023751,-0.00906935,0.0,0 STARLINK-5812,1 55774U 23028AK  23171.58334491 -.00906935  00000-0 -23751-1 0  9997,2 55774  69.9981 210.2609 0003358 274.7181 289.9089 15.41117754  1306,6820.946,93.439,445.102,440.521,0.0
55774.0,STARLINK-5812,PAYLOAD,2023-06-20 22:00:00,15.40424079,0.0003367,69.9983,209.3638,267.0713,345.9683,-0.02248,-0.00843816,0.0,0 STARLINK-5812,1 55774U 23028AK  23171.91667824 -.00843816  00000-0 -22480-1 0  9999,2 55774  69.9983 209.3638 0003367 267.0713 345.9683 15.40424079 17776,6822.994,93.481,447.156,442.561,0.0
55774.0,STARLINK-5812,PAYLOAD,2023-06-21 06:00:00,15.39828528,0.0003462,69.9984,208.4677,268.2064,32.4354,-0.02613,-0.00951962,0.0,0 STARLINK-5812,1 55774U 23028AK  23172.25001157 -.00951962  00000-0 -26130-1 0  9996,2 55774  69.9984 208.4677 0003462 268.2064  32.4354 15.39828528 17822,6824.753,93.517,448.981,444.255,0.0
